ONEWEB-0186             
1 48229U 21031V   26081.19062607 -.00000181  00000+0 -52263-3 0  9992
2 48229  87.8964 307.0570 0001707  80.1001 280.0322 13.14504212236951
ONEWEB-0181             
1 48230U 21031W   26081.16843174  .00000041  00000+0  75377-4 0  9992
2 48230  87.8951 307.1018 0001825  79.0854 281.0481 13.14503407236807
ONEWEB-0188             
1 48231U 21031X   26081.05425293  .00000035  00000+0  59529-4 0  9993
2 48231  87.8951 307.1227 0001658  82.0159 278.1159 13.14503686236691
ONEWEB-0220             
1 48232U 21031Y   26081.17001753  .00000035  00000+0  60395-4 0  9991
2 48232  87.8965 307.0601 0001673  76.2911 283.8405 13.14503345236970
ONEWEB-0165             
1 48233U 21031Z   26081.04633875 -.00000100  00000+0 -30458-3 0  9995
2 48233  87.8968 307.1015 0002015  80.1636 279.9721 13.14503955236911
ONEWEB-0199             
1 48234U 21031AA  26081.10657441 -.00000142  00000+0 -41721-3 0  9999
2 48234  87.8964 307.0713 0001560  88.5904 271.5405 13.14500559236820
ONEWEB-0203             
1 48235U 21031AB  26081.17317364 -.00000047  00000+0 -16046-3 0  9990
2 48235  87.8974 307.0591 0001757  87.5091 272.6240 13.14504701236844
ONEWEB-0197             
1 48236U 21031AC  26081.07155838  .00000183  00000+0  45806-3 0  9991
2 48236  87.8957 307.0767 0001328  78.9972 281.1308 13.14503640236747
ONEWEB-0194             
1 48237U 21031AD  26081.05108283 -.00000010  00000+0 -60565-4 0  9993
2 48237  87.8965 307.0985 0001694  91.6043 268.5280 13.14504043236911
ONEWEB-0193             
1 48238U 21031AE  26080.91470012  .00000151  00000+0  37187-3 0  9997
2 48238  87.8963 307.1175 0001667  99.1199 261.0120 13.14503451236842
ONEWEB-0191             
1 48239U 21031AF  26081.07803868  .00000157  00000+0  38987-3 0  9990
2 48239  87.8962 307.0807 0001611  85.3193 274.8121 13.14503724236726
ONEWEB-0195             
1 48240U 21031AG  26081.05504356  .00000056  00000+0  11568-3 0  9994
2 48240  87.8964 307.0817 0002030  77.8609 282.2748 13.14504228236701
ONEWEB-0201             
1 48241U 21031AH  26081.19551279 -.00000170  00000+0 -49171-3 0  9996
2 48241  87.8956 307.0810 0001551  70.0156 290.1140 13.14502193236955
ONEWEB-0207             
1 48242U 21031AJ  26081.17555575 -.00000093  00000+0 -28458-3 0  9997
2 48242  87.8968 307.0584 0001508  74.1497 285.9799 13.14505257236868
ONEWEB-0208             
1 48243U 21031AK  26081.08120362  .00000241  00000+0  61557-3 0  9990
2 48243  87.8962 307.0898 0001931  79.9997 280.1350 13.14503937236862
ONEWEB-0200             
1 48244U 21031AL  26081.12085628 -.00000077  00000+0 -24128-3 0  9993
2 48244  87.8959 307.0703 0001732  80.6388 279.4938 13.14503321236798
