[{"OBJECT_NAME":"ONEWEB-0186","OBJECT_ID":"2021-031V","EPOCH":"2026-03-22T04:34:30.092448","MEAN_MOTION":13.14504212,"ECCENTRICITY":0.00017075,"INCLINATION":87.8964,"RA_OF_ASC_NODE":307.057,"ARG_OF_PERICENTER":80.1001,"MEAN_ANOMALY":280.0322,"EPHEMERIS_TYPE":0,"CLASSIFICATION_TYPE":"U","NORAD_CAT_ID":48229,"ELEMENT_SET_NO":999,"REV_AT_EPOCH":23695,"BSTAR":-0.00052263483,"MEAN_MOTION_DOT":-1.81e-6,"MEAN_MOTION_DDOT":0},{"OBJECT_NAME":"ONEWEB-0181","OBJECT_ID":"2021-031W","EPOCH":"2026-03-22T04:02:32.502336","MEAN_MOTION":13.14503407,"ECCENTRICITY":0.00018258,"INCLINATION":87.8951,"RA_OF_ASC_NODE":307.1018,"ARG_OF_PERICENTER":79.0854,"MEAN_ANOMALY":281.0481,"EPHEMERIS_TYPE":0,"CLASSIFICATION_TYPE":"U","NORAD_CAT_ID":48230,"ELEMENT_SET_NO":999,"REV_AT_EPOCH":23680,"BSTAR":7.5377178e-5,"MEAN_MOTION_DOT":4.1e-7,"MEAN_MOTION_DDOT":0},{"OBJECT_NAME":"ONEWEB-0188","OBJECT_ID":"2021-031X","EPOCH":"2026-03-22T01:18:07.453152","MEAN_MOTION":13.14503686,"ECCENTRICITY":0.00016581,"INCLINATION":87.8951,"RA_OF_ASC_NODE":307.1227,"ARG_OF_PERICENTER":82.0159,"MEAN_ANOMALY":278.1159,"EPHEMERIS_TYPE":0,"CLASSIFICATION_TYPE":"U","NORAD_CAT_ID":48231,"ELEMENT_SET_NO":999,"REV_AT_EPOCH":23669,"BSTAR":5.9529378e-5,"MEAN_MOTION_DOT":3.5e-7,"MEAN_MOTION_DDOT":0},{"OBJECT_NAME":"ONEWEB-0220","OBJECT_ID":"2021-031Y","EPOCH":"2026-03-22T04:04:49.514592","MEAN_MOTION":13.14503345,"ECCENTRICITY":0.00016736,"INCLINATION":87.8965,"RA_OF_ASC_NODE":307.0601,"ARG_OF_PERICENTER":76.2911,"MEAN_ANOMALY":283.8405,"EPHEMERIS_TYPE":0,"CLASSIFICATION_TYPE":"U","NORAD_CAT_ID":48232,"ELEMENT_SET_NO":999,"REV_AT_EPOCH":23697,"BSTAR":6.0395409e-5,"MEAN_MOTION_DOT":3.5e-7,"MEAN_MOTION_DDOT":0},{"OBJECT_NAME":"ONEWEB-0165","OBJECT_ID":"2021-031Z","EPOCH":"2026-03-22T01:06:43.668000","MEAN_MOTION":13.14503955,"ECCENTRICITY":0.00020155,"INCLINATION":87.8968,"RA_OF_ASC_NODE":307.1015,"ARG_OF_PERICENTER":80.1636,"MEAN_ANOMALY":279.9721,"EPHEMERIS_TYPE":0,"CLASSIFICATION_TYPE":"U","NORAD_CAT_ID":48233,"ELEMENT_SET_NO":999,"REV_AT_EPOCH":23691,"BSTAR":-0.0003045837,"MEAN_MOTION_DOT":-1.0e-6,"MEAN_MOTION_DDOT":0},{"OBJECT_NAME":"ONEWEB-0199","OBJECT_ID":"2021-031AA","EPOCH":"2026-03-22T02:33:28.029024","MEAN_MOTION":13.14500559,"ECCENTRICITY":0.00015607,"INCLINATION":87.8964,"RA_OF_ASC_NODE":307.0713,"ARG_OF_PERICENTER":88.5904,"MEAN_ANOMALY":271.5405,"EPHEMERIS_TYPE":0,"CLASSIFICATION_TYPE":"U","NORAD_CAT_ID":48234,"ELEMENT_SET_NO":999,"REV_AT_EPOCH":23682,"BSTAR":-0.00041720842,"MEAN_MOTION_DOT":-1.42e-6,"MEAN_MOTION_DDOT":0},{"OBJECT_NAME":"ONEWEB-0203","OBJECT_ID":"2021-031AB","EPOCH":"2026-03-22T04:09:22.202496","MEAN_MOTION":13.14504701,"ECCENTRICITY":0.00017574,"INCLINATION":87.8974,"RA_OF_ASC_NODE":307.0591,"ARG_OF_PERICENTER":87.5091,"MEAN_ANOMALY":272.624,"EPHEMERIS_TYPE":0,"CLASSIFICATION_TYPE":"U","NORAD_CAT_ID":48235,"ELEMENT_SET_NO":999,"REV_AT_EPOCH":23684,"BSTAR":-0.00016045987,"MEAN_MOTION_DOT":-4.7e-7,"MEAN_MOTION_DDOT":0},{"OBJECT_NAME":"ONEWEB-0197","OBJECT_ID":"2021-031AC","EPOCH":"2026-03-22T01:43:02.644032","MEAN_MOTION":13.1450364,"ECCENTRICITY":0.00013288,"INCLINATION":87.8957,"RA_OF_ASC_NODE":307.0767,"ARG_OF_PERICENTER":78.9972,"MEAN_ANOMALY":281.1308,"EPHEMERIS_TYPE":0,"CLASSIFICATION_TYPE":"U","NORAD_CAT_ID":48236,"ELEMENT_SET_NO":999,"REV_AT_EPOCH":23674,"BSTAR":0.00045806303,"MEAN_MOTION_DOT":1.83e-6,"MEAN_MOTION_DDOT":0},{"OBJECT_NAME":"ONEWEB-0194","OBJECT_ID":"2021-031AD","EPOCH":"2026-03-22T01:13:33.556512","MEAN_MOTION":13.14504043,"ECCENTRICITY":0.0001694,"INCLINATION":87.8965,"RA_OF_ASC_NODE":307.0985,"ARG_OF_PERICENTER":91.6043,"MEAN_ANOMALY":268.528,"EPHEMERIS_TYPE":0,"CLASSIFICATION_TYPE":"U","NORAD_CAT_ID":48237,"ELEMENT_SET_NO":999,"REV_AT_EPOCH":23691,"BSTAR":-6.056518e-5,"MEAN_MOTION_DOT":-1.0e-7,"MEAN_MOTION_DDOT":0},{"OBJECT_NAME":"ONEWEB-0193","OBJECT_ID":"2021-031AE","EPOCH":"2026-03-21T21:57:10.090368","MEAN_MOTION":13.14503451,"ECCENTRICITY":0.00016673,"INCLINATION":87.8963,"RA_OF_ASC_NODE":307.1175,"ARG_OF_PERICENTER":99.1199,"MEAN_ANOMALY":261.012,"EPHEMERIS_TYPE":0,"CLASSIFICATION_TYPE":"U","NORAD_CAT_ID":48238,"ELEMENT_SET_NO":999,"REV_AT_EPOCH":23684,"BSTAR":0.00037186601,"MEAN_MOTION_DOT":1.51e-6,"MEAN_MOTION_DDOT":0},{"OBJECT_NAME":"ONEWEB-0191","OBJECT_ID":"2021-031AF","EPOCH":"2026-03-22T01:52:22.541952","MEAN_MOTION":13.14503724,"ECCENTRICITY":0.00016117,"INCLINATION":87.8962,"RA_OF_ASC_NODE":307.0807,"ARG_OF_PERICENTER":85.3193,"MEAN_ANOMALY":274.8121,"EPHEMERIS_TYPE":0,"CLASSIFICATION_TYPE":"U","NORAD_CAT_ID":48239,"ELEMENT_SET_NO":999,"REV_AT_EPOCH":23672,"BSTAR":0.00038987028,"MEAN_MOTION_DOT":1.57e-6,"MEAN_MOTION_DDOT":0},{"OBJECT_NAME":"ONEWEB-0195","OBJECT_ID":"2021-031AG","EPOCH":"2026-03-22T01:19:15.763584","MEAN_MOTION":13.14504228,"ECCENTRICITY":0.00020302,"INCLINATION":87.8964,"RA_OF_ASC_NODE":307.0817,"ARG_OF_PERICENTER":77.8609,"MEAN_ANOMALY":282.2748,"EPHEMERIS_TYPE":0,"CLASSIFICATION_TYPE":"U","NORAD_CAT_ID":48240,"ELEMENT_SET_NO":999,"REV_AT_EPOCH":23670,"BSTAR":0.00011567875,"MEAN_MOTION_DOT":5.6e-7,"MEAN_MOTION_DDOT":0},{"OBJECT_NAME":"ONEWEB-0201","OBJECT_ID":"2021-031AH","EPOCH":"2026-03-22T04:41:32.305056","MEAN_MOTION":13.14502193,"ECCENTRICITY":0.00015515,"INCLINATION":87.8956,"RA_OF_ASC_NODE":307.081,"ARG_OF_PERICENTER":70.0156,"MEAN_ANOMALY":290.114,"EPHEMERIS_TYPE":0,"CLASSIFICATION_TYPE":"U","NORAD_CAT_ID":48241,"ELEMENT_SET_NO":999,"REV_AT_EPOCH":23695,"BSTAR":-0.00049171125,"MEAN_MOTION_DOT":-1.7e-6,"MEAN_MOTION_DDOT":0},{"OBJECT_NAME":"ONEWEB-0207","OBJECT_ID":"2021-031AJ","EPOCH":"2026-03-22T04:12:48.016800","MEAN_MOTION":13.14505257,"ECCENTRICITY":0.00015082,"INCLINATION":87.8968,"RA_OF_ASC_NODE":307.0584,"ARG_OF_PERICENTER":74.1497,"MEAN_ANOMALY":285.9799,"EPHEMERIS_TYPE":0,"CLASSIFICATION_TYPE":"U","NORAD_CAT_ID":48242,"ELEMENT_SET_NO":999,"REV_AT_EPOCH":23686,"BSTAR":-0.00028457622,"MEAN_MOTION_DOT":-9.3e-7,"MEAN_MOTION_DDOT":0},{"OBJECT_NAME":"ONEWEB-0208","OBJECT_ID":"2021-031AK","EPOCH":"2026-03-22T01:56:55.992768","MEAN_MOTION":13.14503937,"ECCENTRICITY":0.00019313,"INCLINATION":87.8962,"RA_OF_ASC_NODE":307.0898,"ARG_OF_PERICENTER":79.9997,"MEAN_ANOMALY":280.135,"EPHEMERIS_TYPE":0,"CLASSIFICATION_TYPE":"U","NORAD_CAT_ID":48243,"ELEMENT_SET_NO":999,"REV_AT_EPOCH":23686,"BSTAR":0.00061557054,"MEAN_MOTION_DOT":2.41e-6,"MEAN_MOTION_DDOT":0},{"OBJECT_NAME":"ONEWEB-0200","OBJECT_ID":"2021-031AL","EPOCH":"2026-03-22T02:54:01.982592","MEAN_MOTION":13.14503321,"ECCENTRICITY":0.00017321,"INCLINATION":87.8959,"RA_OF_ASC_NODE":307.0703,"ARG_OF_PERICENTER":80.6388,"MEAN_ANOMALY":279.4938,"EPHEMERIS_TYPE":0,"CLASSIFICATION_TYPE":"U","NORAD_CAT_ID":48244,"ELEMENT_SET_NO":999,"REV_AT_EPOCH":23679,"BSTAR":-0.00024127736,"MEAN_MOTION_DOT":-7.7e-7,"MEAN_MOTION_DDOT":0}]
